OBJECT_NAME,OBJECT_ID,EPOCH,MEAN_MOTION,ECCENTRICITY,INCLINATION,RA_OF_ASC_NODE,ARG_OF_PERICENTER,MEAN_ANOMALY,EPHEMERIS_TYPE,CLASSIFICATION_TYPE,NORAD_CAT_ID,ELEMENT_SET_NO,REV_AT_EPOCH,BSTAR,MEAN_MOTION_DOT,MEAN_MOTION_DDOT
STARLINK-36200,2025-298AC,2026-06-05T09:54:10.792224,14.98300071,.0003429,70.0010,153.4283,266.7357,93.3410,0,U,67101,999,2635,-.17967E-2,-.2145E-3,0
STARLINK-36255,2025-299A,2026-06-05T08:44:18.659904,15.27558741,.0001309,43.0020,33.9681,277.3635,82.7067,0,U,67102,999,2652,.64377E-3,.17484E-3,0
STARLINK-36256,2025-299B,2026-06-05T16:25:50.744640,15.27574110,.0001137,43.0003,32.0746,269.7607,90.3115,0,U,67103,999,2657,.72212E-3,.19659E-3,0
STARLINK-36258,2025-299C,2026-06-05T08:55:23.983104,15.27606600,.0002615,43.0030,34.0183,264.9693,95.0860,0,U,67104,999,2652,.57973E-3,.15738E-3,0
STARLINK-36261,2025-299D,2026-06-05T08:38:44.226240,15.27632545,.0002162,43.0026,33.9414,277.8587,82.2019,0,U,67105,999,2652,.6899E-3,.18802E-3,0
STARLINK-36259,2025-299E,2026-06-05T17:23:00.179232,15.27596471,.0002424,43.0020,31.5081,320.4067,39.6607,0,U,67106,999,2658,.71696E-3,.1953E-3,0
STARLINK-36196,2025-299F,2026-06-05T18:05:35.024640,15.27643024,.0001319,43.0034,31.7444,333.4870,26.5914,0,U,67107,999,2658,.73151E-3,.1996E-3,0
STARLINK-36208,2025-299G,2026-06-04T16:12:47.398176,15.27667109,.00021194,43.0026,37.3920,248.2502,111.8124,0,U,67108,999,2642,.10131714E-2,.27798E-3,0
STARLINK-35764,2025-299H,2026-06-05T08:18:24.583104,15.27609312,.0001096,42.9991,33.8255,358.2634,1.8214,0,U,67109,999,2761,.6231E-3,.16939E-3,0
STARLINK-35781,2025-299J,2026-06-05T13:45:17.877312,15.27497343,.0000951,43.0015,32.9553,269.4971,90.5771,0,U,67110,999,2655,.35727E-2,.99129E-3,0
STARLINK-35875,2025-299K,2026-06-05T08:14:42.242208,15.27587471,.000146,43.0016,33.8015,283.2945,76.7744,0,U,67111,999,2652,.59459E-3,.16139E-3,0
STARLINK-35906,2025-299L,2026-06-05T09:00:58.288896,15.27594346,.0001907,43.0034,34.0463,267.6475,92.4158,0,U,67112,999,2652,.55837E-3,.15141E-3,0
STARLINK-35789,2025-299M,2026-06-05T18:16:39.103680,15.27568938,.0001026,43.0007,31.7880,263.2339,96.8396,0,U,67113,999,2658,.7164E-3,.19497E-3,0
STARLINK-36180,2025-299N,2026-06-05T08:49:52.377312,15.27618817,.0000763,43.0029,33.9860,29.4011,330.6884,0,U,67114,999,2652,.76859E-3,.20973E-3,0
STARLINK-35892,2025-299P,2026-06-03T21:35:51.430848,15.27640348,.0001625,43.0002,41.8911,258.0668,102.0002,0,U,67115,999,2630,.82593E-3,.22577E-3,0
STARLINK-35738,2025-299Q,2026-06-03T18:12:44.672832,15.27656374,.00023882,43.0023,42.5550,258.1264,101.9320,0,U,67116,999,2628,.1146179E-2,.31488E-3,0
STARLINK-35674,2025-299R,2026-06-05T08:29:29.875200,15.27604832,.0003551,42.9986,33.8836,264.8270,95.2177,0,U,67117,999,2652,.64574E-3,.17565E-3,0
STARLINK-35701,2025-299S,2026-06-05T03:26:37.535136,15.27523878,.0011164,43.0246,34.8715,248.9325,111.0333,0,U,67118,999,2649,-.15696E-2,-.43217E-3,0
STARLINK-36179,2025-299T,2026-06-05T08:23:57.311232,15.27578282,.0001478,43.0002,33.8530,268.0760,91.9922,0,U,67119,999,2652,.55045E-3,.14915E-3,0
STARLINK-36217,2025-299U,2026-06-05T09:06:31.137120,15.27587469,.0001587,43.0044,34.0761,273.7444,86.3227,0,U,67120,999,2652,.65309E-3,.17757E-3,0
STARLINK-36124,2025-299V,2026-06-05T08:46:09.192288,15.27679029,.0002809,43.0013,33.9680,300.4499,59.6075,0,U,67121,999,2652,.58331E-2,.164374E-2,0
STARLINK-36188,2025-299W,2026-06-05T08:57:15.763968,15.27584110,.0001543,43.0017,34.0304,266.4511,93.6164,0,U,67122,999,2652,.67568E-3,.1838E-3,0
STARLINK-36151,2025-299X,2026-06-05T19:11:58.125984,15.27644466,.0001516,42.9995,31.2075,258.4093,101.6588,0,U,67123,999,2659,.72223E-3,.19704E-3,0
STARLINK-36195,2025-299Y,2026-06-05T09:15:31.398048,15.27700775,.0006188,43.0088,33.2599,260.8557,99.1595,0,U,67124,999,2653,.96407E-3,.26472E-3,0
STARLINK-36219,2025-299Z,2026-06-04T16:49:47.400384,15.27579610,.00016286,43.0009,37.5792,271.1822,88.8843,0,U,67125,999,2642,.71919932E-3,.19581E-3,0
STARLINK-36223,2025-299AA,2026-06-05T08:20:15.671904,15.27586702,.0000665,42.9985,33.8274,301.2200,58.8586,0,U,67126,999,2652,.9435E-3,.25797E-3,0
STARLINK-36164,2025-299AB,2026-06-03T23:02:37.473216,15.27624520,.00011019,43.0021,41.4798,247.8203,112.2532,0,U,67127,999,2631,.70256822E-3,.19147E-3,0
STARLINK-35685,2025-299AC,2026-06-04T17:56:11.556672,15.27648648,.00021702,42.9995,37.0707,244.6511,115.4116,0,U,67128,999,2643,.76150561E-3,.20796E-3,0
STARLINK-36214,2025-299AD,2026-06-05T09:10:13.243872,15.27579495,.0001163,43.0059,34.1001,292.0488,68.0240,0,U,67129,999,2652,.52154E-3,.14117E-3,0
STARLINK-36194,2025-299AE,2026-06-05T08:25:48.495072,15.27593664,.000131,42.9993,33.8576,283.0741,76.9964,0,U,67130,999,2652,.51628E-3,.13978E-3,0
STARLINK-35755,2025-303A,2026-06-05T08:40:56.870112,15.27584558,.0000903,43.0003,175.5777,264.8973,95.1776,0,U,67163,999,2614,.48199E-3,.13027E-3,0
STARLINK-36201,2025-303B,2026-06-05T08:02:05.607168,15.27630354,.0000711,42.9956,175.3724,254.6541,105.4232,0,U,67164,999,2614,.61991E-3,.16862E-3,0
STARLINK-36186,2025-303C,2026-06-05T08:07:38.477856,15.27583646,.00015,43.0024,175.3987,272.8616,87.2064,0,U,67165,999,2614,.50905E-3,.13774E-3,0
STARLINK-36174,2025-303D,2026-06-01T10:16:45.503616,15.27590560,.00013005,43.0009,197.6564,271.6491,88.4212,0,U,67166,999,2554,.5966152E-3,.16197E-3,0
STARLINK-36198,2025-303E,2026-06-05T07:49:23.350080,15.27523058,.0002471,43.0018,176.1714,293.9414,66.1178,0,U,67167,999,2613,.49795E-3,.13442E-3,0
STARLINK-35903,2025-303F,2026-06-05T08:22:26.700096,15.27577358,.0001465,42.9974,175.4788,274.1969,85.8715,0,U,67168,999,2614,.3412E-4,.677E-5,0
STARLINK-35839,2025-303G,2026-06-05T07:53:03.182784,15.27601207,.0000189,42.9958,176.1885,208.4655,151.6186,0,U,67169,999,2613,.66885E-3,.18201E-3,0
STARLINK-35863,2025-303H,2026-06-05T04:29:55.994496,15.27575018,.00014999,43.0016,176.8509,264.8867,95.1814,0,U,67170,999,2611,.61626442E-3,.16732E-3,0
STARLINK-35771,2025-303J,2026-06-05T07:45:39.098016,15.27577344,.0001579,43.0002,176.1503,282.1419,77.9256,0,U,67171,999,2613,.56212E-3,.15237E-3,0
STARLINK-35762,2025-303K,2026-06-05T07:41:56.575680,15.27657053,.000179,42.9994,176.1316,257.8982,102.1669,0,U,67172,999,2613,.68397E-3,.18651E-3,0
STARLINK-36183,2025-303L,2026-06-05T04:22:31.838016,15.27637265,.000133,42.9995,176.8101,187.5285,172.5546,0,U,67173,999,2611,.5115E-3,.13864E-3,0
STARLINK-36210,2025-303M,2026-06-05T04:13:16.857120,15.27579888,.0001452,43.0025,176.7616,281.9275,78.1413,0,U,67174,999,2611,.50425E-3,.13639E-3,0
STARLINK-35756,2025-303N,2026-06-04T04:37:14.253312,15.27624036,.0001288,43.0013,182.2773,230.7743,129.2995,0,U,67175,999,2596,.66242E-3,.18035E-3,0
STARLINK-35785,2025-303P,2026-06-05T08:44:38.867136,15.27578724,.0001411,43.0038,175.5935,267.2339,92.8351,0,U,67176,999,2614,.22888E-3,.6041E-4,0
STARLINK-35853,2025-303Q,2026-06-03T05:03:02.067840,15.27621531,.0001517,43.0017,187.8050,190.3841,169.6980,0,U,67177,999,2581,.84246E-3,.23022E-3,0
STARLINK-35878,2025-303R,2026-06-05T08:39:05.764032,15.27605838,.0001672,43.0028,175.5623,272.6666,87.3994,0,U,67178,999,2614,.88937E-3,.24312E-3,0
STARLINK-35793,2025-303S,2026-06-05T08:35:23.690976,15.27613677,.0001129,43.0005,175.5407,276.6619,83.4105,0,U,67179,999,2614,.61551E-3,.16731E-3,0
STARLINK-35876,2025-303T,2026-06-05T08:33:32.520960,15.27586625,.0000203,42.9977,175.5281,221.3697,138.7139,0,U,67180,999,2614,.42436E-3,.11436E-3,0
STARLINK-35766,2025-303U,2026-06-05T08:18:44.493120,15.27589252,.0000752,42.9983,175.4513,261.8868,98.1899,0,U,67181,999,2614,.54751E-3,.14839E-3,0
STARLINK-35782,2025-303V,2026-06-05T08:03:56.331360,15.27595594,.0000294,42.9985,175.3744,197.6664,162.4178,0,U,67182,999,2614,.66861E-3,.18191E-3,0
STARLINK-35719,2025-303W,2026-06-05T12:55:37.969824,15.27635740,.0001532,43.0000,174.3156,279.6936,80.3742,0,U,67183,999,2617,.60695E-3,.16506E-3,0
STARLINK-35910,2025-303X,2026-06-05T07:58:23.415744,15.27635728,.0001173,42.9926,175.3454,104.4517,255.6465,0,U,67184,999,2614,.51696E-3,.14015E-3,0
STARLINK-35859,2025-303Y,2026-06-05T08:05:47.478048,15.27581063,.0001209,42.9991,175.3804,269.7772,90.2941,0,U,67185,999,2614,.47805E-3,.12916E-3,0
STARLINK-35857,2025-303Z,2026-06-05T08:27:59.664960,15.27652208,.0000447,42.9977,175.4992,187.3697,172.7148,0,U,67186,999,2614,.66081E-3,.18007E-3,0
STARLINK-35880,2025-303AA,2026-06-05T08:16:53.432832,15.27647612,.000123,42.9980,175.4379,257.2128,102.8586,0,U,67187,999,2614,.77197E-3,.21086E-3,0
STARLINK-35675,2025-303AB,2026-06-05T07:56:46.415328,15.27600744,.0001527,42.9994,176.1996,280.0594,80.0086,0,U,67188,999,2613,.48776E-3,.13193E-3,0
STARLINK-35889,2025-303AC,2026-06-05T07:47:28.533120,15.27630232,.0001703,43.0012,176.1500,261.5255,98.5403,0,U,67189,999,2613,.49963E-3,.13533E-3,0
STARLINK-35888,2025-303AD,2026-06-04T18:59:25.911168,15.27599764,.0002445,43.0047,179.0315,274.8676,85.1897,0,U,67190,999,2605,.63736623E-3,.17329E-3,0
STARLINK-35716,2025-303AE,2026-06-05T07:54:53.989920,15.27664203,.0001046,42.9954,176.1827,223.1518,136.9252,0,U,67191,999,2613,.68138E-3,.18583E-3,0
STARLINK-36182,2025-304A,2026-06-05T20:00:04.000032,14.98322239,.0002894,70.0013,312.2245,269.1128,234.8867,0,U,67192,999,581,.34108E-2,.40833E-3,0
STARLINK-36279,2025-304B,2026-06-05T19:15:22.875840,14.98338086,.0002907,70.0018,312.2704,273.7094,86.3733,0,U,67193,999,2708,.27125E-3,.3146E-4,0
STARLINK-36284,2025-304C,2026-06-05T16:33:10.944000,14.98345903,.000311,70.0024,312.6848,262.6116,97.4690,0,U,67194,999,2706,.53429E-3,.629E-4,0
STARLINK-36291,2025-304D,2026-06-05T12:09:02.762208,14.98339470,.0002832,70.0022,313.2423,264.7534,95.3302,0,U,67195,999,2703,.50164E-3,.5899E-4,0
STARLINK-36239,2025-304E,2026-06-05T16:51:13.237056,14.98322765,.0003054,70.0000,312.7217,265.4359,94.6451,0,U,67196,999,2706,.30855E-3,.359E-4,0
STARLINK-36283,2025-304F,2026-06-05T12:26:48.178752,14.98338162,.0002643,70.0024,312.8846,271.3249,88.7607,0,U,67197,999,2704,.3599E-3,.4205E-4,0
